NOAA 1                  
1 04793U 70106A   26063.56624007 -.00000024  00000+0  11407-3 0  9996
2 04793 101.3524 102.8124 0031699 190.9061 337.7085 12.54049214527574
NOAA 2 (ITOS-D)         
1 06235U 72082A   26063.81163292 -.00000034  00000+0  76092-4 0  9999
2 06235 102.0168  81.2096 0004020  14.6066 158.0459 12.53211682441878
NOAA 3                  
1 06920U 73086A   26063.52329617 -.00000038  00000+0  59710-4 0  9990
2 06920 102.2909  76.4514 0006191 318.6513 163.1797 12.40391639368923
NOAA 4                  
1 07529U 74089A   26063.54061512 -.00000048  00000+0 -73023-5 0  9995
2 07529 102.0074  75.2167 0009158  38.5022  83.9511 12.53201532346419
NOAA 5                  
1 09057U 76077A   26063.73478009 -.00000041  00000+0  39051-4 0  9990
2 09057 102.2953  49.2157 0009773 169.6724 189.7843 12.37828217241541
TIROS N                 
1 11060U 78096A   26063.31294851  .00000255  00000+0  14127-3 0  9997
2 11060  98.4638  89.0712 0010429 180.4332 179.6838 14.19335797663873
NOAA 6                  
1 11416U 79057A   26063.53277048  .00000450  00000+0  17207-3 0  9992
2 11416  98.5757  93.7175 0009456 202.4931 157.5841 14.35429324435946
NOAA 7                  
1 12553U 81059A   26063.15649046  .00000098  00000+0  69802-4 0  9996
2 12553  98.8070 131.2541 0011056 203.8107 156.2558 14.17772006309864
NOAA 8                  
1 13923U 83022A   26063.51569023  .00000212  00000+0  10001-3 0  9990
2 13923  98.7374  76.2960 0014382 200.9088 159.1507 14.29764551236118
NOAA 9                  
1 15427U 84123A   26063.50366369  .00000169  00000+0  10747-3 0  9999
2 15427  99.1100  87.6647 0013692 287.4456 196.0247 14.17037042128599
NOAA 10                 
1 16969U 86073A   26063.73461207  .00000231  00000+0  10864-3 0  9999
2 16969  98.6996  57.1374 0011172 305.0252 227.8008 14.29141886 54499
NOAA 11                 
1 19531U 88089A   26063.83961257  .00000087  00000+0  65592-4 0  9995
2 19531  98.6091  13.0437 0010107 234.6592 125.3639 14.15819409932715
NOAA 12                 
1 21263U 91032A   26063.77416490  .00000160  00000+0  83931-4 0  9998
2 21263  98.6148  53.8521 0013194 338.1482  21.9134 14.26715624810077
NOAA 13                 
1 22739U 93050A   26063.83673416  .00000174  00000+0  11487-3 0  9990
2 22739  98.6928  11.7194 0010530  69.5111 290.7191 14.13634454678636
NOAA 14                 
1 23455U 94089A   26063.80178508  .00000092  00000+0  69127-4 0  9992
2 23455  98.5014  38.2490 0010044  29.8223 330.3521 14.14653975608443
NOAA 15                 
1 25338U 98030A   26063.79088198  .00000205  00000+0  10180-3 0  9997
2 25338  98.5167  87.2001 0009159 296.2875  63.7364 14.27110331446400
NOAA 16                 
1 26536U 00055A   26063.78595500  .00000145  00000+0  98097-4 0  9994
2 26536  98.4707  83.5441 0009407 237.6863 122.3400 14.13896620608971
NOAA 17                 
1 27453U 02032A   26063.83498494  .00000336  00000+0  15921-3 0  9996
2 27453  98.8533  28.4134 0010687 297.2224  62.7866 14.26185962232119
NOAA 18                 
1 28654U 05018A   26063.79985944  .00000099  00000+0  75648-4 0  9992
2 28654  98.8164 144.9755 0015354  88.4209 271.8722 14.13709794 71560
NOAA 19                 
1 33591U 09005A   26063.78018420  .00000083  00000+0  67927-4 0  9997
2 33591  98.9616 134.5428 0013081 329.3750  30.6657 14.13455784879734
SUOMI NPP               
1 37849U 11061A   26063.80929823  .00000130  00000+0  82600-4 0  9991
2 37849  98.7865   5.4509 0000407 278.2565  81.8564 14.19541928743634
NOAA 20 (JPSS-1)        
1 43013U 17073A   26063.75345911  .00000102  00000+0  69077-4 0  9996
2 43013  98.7687   4.1898 0000982 144.1759 215.9483 14.19534546429658
NOAA 21 (JPSS-2)        
1 54234U 22150A   26063.78822145  .00000118  00000+0  76963-4 0  9996
2 54234  98.7550   4.1104 0002546 115.2662 244.8779 14.19550589171731
